[{"OBJECT_NAME":"SL-8 R/B","OBJECT_ID":"1988-053B","EPOCH":"2026-04-01T16:34:32.156544","MEAN_MOTION":14.3893185,"ECCENTRICITY":0.0021421,"INCLINATION":74.0464,"RA_OF_ASC_NODE":70.0644,"ARG_OF_PERICENTER":246.2865,"MEAN_ANOMALY":286.4698,"EPHEMERIS_TYPE":0,"CLASSIFICATION_TYPE":"U","NORAD_CAT_ID":19257,"ELEMENT_SET_NO":999,"REV_AT_EPOCH":97990,"BSTAR":0.00011267,"MEAN_MOTION_DOT":3.22e-6,"MEAN_MOTION_DDOT":0},{"OBJECT_NAME":"COSMOS 1975","OBJECT_ID":"1988-093A","EPOCH":"2026-04-01T10:41:34.247328","MEAN_MOTION":15.28388149,"ECCENTRICITY":0.0013408,"INCLINATION":82.5154,"RA_OF_ASC_NODE":94.8303,"ARG_OF_PERICENTER":91.5017,"MEAN_ANOMALY":268.7758,"EPHEMERIS_TYPE":0,"CLASSIFICATION_TYPE":"U","NORAD_CAT_ID":19573,"ELEMENT_SET_NO":999,"REV_AT_EPOCH":2288,"BSTAR":0.00024087,"MEAN_MOTION_DOT":6.706e-5,"MEAN_MOTION_DDOT":0},{"OBJECT_NAME":"SL-14 R/B","OBJECT_ID":"1988-093B","EPOCH":"2026-04-01T13:59:07.041696","MEAN_MOTION":14.8568408,"ECCENTRICITY":0.0019789,"INCLINATION":82.5343,"RA_OF_ASC_NODE":20.5574,"ARG_OF_PERICENTER":326.2877,"MEAN_ANOMALY":207.1143,"EPHEMERIS_TYPE":0,"CLASSIFICATION_TYPE":"U","NORAD_CAT_ID":19574,"ELEMENT_SET_NO":999,"REV_AT_EPOCH":441,"BSTAR":7.2051e-5,"MEAN_MOTION_DOT":6.51e-6,"MEAN_MOTION_DDOT":0},{"OBJECT_NAME":"SL-16 R/B","OBJECT_ID":"1988-102B","EPOCH":"2026-04-01T17:16:45.180768","MEAN_MOTION":14.16153877,"ECCENTRICITY":0.0015285,"INCLINATION":70.9969,"RA_OF_ASC_NODE":103.0379,"ARG_OF_PERICENTER":327.7197,"MEAN_ANOMALY":32.2989,"EPHEMERIS_TYPE":0,"CLASSIFICATION_TYPE":"U","NORAD_CAT_ID":19650,"ELEMENT_SET_NO":999,"REV_AT_EPOCH":93015,"BSTAR":8.3734e-5,"MEAN_MOTION_DOT":1.18e-6,"MEAN_MOTION_DDOT":0},{"OBJECT_NAME":"INTERCOSMOS 24","OBJECT_ID":"1989-080A","EPOCH":"2026-04-01T16:17:54.711744","MEAN_MOTION":12.59586556,"ECCENTRICITY":0.118694,"INCLINATION":82.6014,"RA_OF_ASC_NODE":89.4288,"ARG_OF_PERICENTER":239.413,"MEAN_ANOMALY":108.4677,"EPHEMERIS_TYPE":0,"CLASSIFICATION_TYPE":"U","NORAD_CAT_ID":20261,"ELEMENT_SET_NO":999,"REV_AT_EPOCH":66969,"BSTAR":0.0001482,"MEAN_MOTION_DOT":5.03e-6,"MEAN_MOTION_DDOT":0},{"OBJECT_NAME":"SL-14 R/B","OBJECT_ID":"1989-080C","EPOCH":"2026-04-01T06:44:32.027136","MEAN_MOTION":12.50515118,"ECCENTRICITY":0.1230905,"INCLINATION":82.595,"RA_OF_ASC_NODE":158.69,"ARG_OF_PERICENTER":133.1373,"MEAN_ANOMALY":237.9537,"EPHEMERIS_TYPE":0,"CLASSIFICATION_TYPE":"U","NORAD_CAT_ID":20262,"ELEMENT_SET_NO":999,"REV_AT_EPOCH":66297,"BSTAR":0.00011743,"MEAN_MOTION_DOT":4.2e-6,"MEAN_MOTION_DDOT":0},{"OBJECT_NAME":"DELTA 1 R/B","OBJECT_ID":"1989-089B","EPOCH":"2026-04-01T19:06:59.263200","MEAN_MOTION":14.50682375,"ECCENTRICITY":0.0070301,"INCLINATION":97.0687,"RA_OF_ASC_NODE":295.5566,"ARG_OF_PERICENTER":50.3855,"MEAN_ANOMALY":310.352,"EPHEMERIS_TYPE":0,"CLASSIFICATION_TYPE":"U","NORAD_CAT_ID":20323,"ELEMENT_SET_NO":999,"REV_AT_EPOCH":89908,"BSTAR":0.00011066,"MEAN_MOTION_DOT":4.14e-6,"MEAN_MOTION_DDOT":0},{"OBJECT_NAME":"ARIANE 40 R/B","OBJECT_ID":"1990-005H","EPOCH":"2026-04-01T04:32:57.699744","MEAN_MOTION":14.39885236,"ECCENTRICITY":0.0011135,"INCLINATION":98.3037,"RA_OF_ASC_NODE":151.1754,"ARG_OF_PERICENTER":133.2837,"MEAN_ANOMALY":226.9282,"EPHEMERIS_TYPE":0,"CLASSIFICATION_TYPE":"U","NORAD_CAT_ID":20443,"ELEMENT_SET_NO":999,"REV_AT_EPOCH":89604,"BSTAR":0.0001078,"MEAN_MOTION_DOT":2.97e-6,"MEAN_MOTION_DDOT":0},{"OBJECT_NAME":"DELTA 2 R/B(1)","OBJECT_ID":"1990-008B","EPOCH":"2026-04-01T20:03:07.963776","MEAN_MOTION":15.59135232,"ECCENTRICITY":0.0076793,"INCLINATION":35.6044,"RA_OF_ASC_NODE":22.6054,"ARG_OF_PERICENTER":116.2428,"MEAN_ANOMALY":244.6226,"EPHEMERIS_TYPE":0,"CLASSIFICATION_TYPE":"U","NORAD_CAT_ID":20453,"ELEMENT_SET_NO":999,"REV_AT_EPOCH":92974,"BSTAR":0.00078201,"MEAN_MOTION_DOT":0.00073519,"MEAN_MOTION_DDOT":0},{"OBJECT_NAME":"COSMOS 2058","OBJECT_ID":"1990-010A","EPOCH":"2026-04-01T21:15:44.660448","MEAN_MOTION":15.11545123,"ECCENTRICITY":0.0007744,"INCLINATION":82.4716,"RA_OF_ASC_NODE":24.5717,"ARG_OF_PERICENTER":249.2864,"MEAN_ANOMALY":110.7536,"EPHEMERIS_TYPE":0,"CLASSIFICATION_TYPE":"U","NORAD_CAT_ID":20465,"ELEMENT_SET_NO":999,"REV_AT_EPOCH":94574,"BSTAR":0.00033316,"MEAN_MOTION_DOT":5.678e-5,"MEAN_MOTION_DDOT":0},{"OBJECT_NAME":"SL-14 R/B","OBJECT_ID":"1990-010B","EPOCH":"2026-04-01T16:27:54.821952","MEAN_MOTION":14.83591305,"ECCENTRICITY":0.0018832,"INCLINATION":82.5002,"RA_OF_ASC_NODE":245.7817,"ARG_OF_PERICENTER":220.9079,"MEAN_ANOMALY":139.0724,"EPHEMERIS_TYPE":0,"CLASSIFICATION_TYPE":"U","NORAD_CAT_ID":20466,"ELEMENT_SET_NO":999,"REV_AT_EPOCH":93189,"BSTAR":7.3671e-5,"MEAN_MOTION_DOT":6.32e-6,"MEAN_MOTION_DDOT":0},{"OBJECT_NAME":"SL-14 R/B","OBJECT_ID":"1990-018B","EPOCH":"2026-04-01T14:10:54.428736","MEAN_MOTION":14.82167929,"ECCENTRICITY":0.0016654,"INCLINATION":82.524,"RA_OF_ASC_NODE":201.6892,"ARG_OF_PERICENTER":21.5813,"MEAN_ANOMALY":338.6099,"EPHEMERIS_TYPE":0,"CLASSIFICATION_TYPE":"U","NORAD_CAT_ID":20511,"ELEMENT_SET_NO":999,"REV_AT_EPOCH":92597,"BSTAR":6.5658e-5,"MEAN_MOTION_DOT":5.47e-6,"MEAN_MOTION_DDOT":0},{"OBJECT_NAME":"HST","OBJECT_ID":"1990-037B","EPOCH":"2026-04-01T12:23:53.875392","MEAN_MOTION":15.29849412,"ECCENTRICITY":0.0001988,"INCLINATION":28.472,"RA_OF_ASC_NODE":244.2399,"ARG_OF_PERICENTER":30.6605,"MEAN_ANOMALY":329.4107,"EPHEMERIS_TYPE":0,"CLASSIFICATION_TYPE":"U","NORAD_CAT_ID":20580,"ELEMENT_SET_NO":999,"REV_AT_EPOCH":77681,"BSTAR":0.00030432,"MEAN_MOTION_DOT":9.29e-5,"MEAN_MOTION_DDOT":0},{"OBJECT_NAME":"SL-16 R/B","OBJECT_ID":"1990-046B","EPOCH":"2026-04-01T17:49:30.499104","MEAN_MOTION":14.15018387,"ECCENTRICITY":0.0016474,"INCLINATION":70.9984,"RA_OF_ASC_NODE":249.4936,"ARG_OF_PERICENTER":269.612,"MEAN_ANOMALY":90.3115,"EPHEMERIS_TYPE":0,"CLASSIFICATION_TYPE":"U","NORAD_CAT_ID":20625,"ELEMENT_SET_NO":999,"REV_AT_EPOCH":85165,"BSTAR":7.9521e-5,"MEAN_MOTION_DOT":1.06e-6,"MEAN_MOTION_DDOT":0},{"OBJECT_NAME":"COSMOS 2084","OBJECT_ID":"1990-055A","EPOCH":"2026-04-01T10:26:03.372864","MEAN_MOTION":15.05783047,"ECCENTRICITY":0.0013423,"INCLINATION":62.7892,"RA_OF_ASC_NODE":257.9924,"ARG_OF_PERICENTER":197.557,"MEAN_ANOMALY":162.5069,"EPHEMERIS_TYPE":0,"CLASSIFICATION_TYPE":"U","NORAD_CAT_ID":20663,"ELEMENT_SET_NO":999,"REV_AT_EPOCH":93974,"BSTAR":0.00022448,"MEAN_MOTION_DOT":3.073e-5,"MEAN_MOTION_DDOT":0},{"OBJECT_NAME":"SL-6 R/B(2)","OBJECT_ID":"1990-055D","EPOCH":"2026-04-01T12:21:46.395648","MEAN_MOTION":15.03705924,"ECCENTRICITY":0.0028549,"INCLINATION":62.7834,"RA_OF_ASC_NODE":176.2229,"ARG_OF_PERICENTER":352.1504,"MEAN_ANOMALY":7.9144,"EPHEMERIS_TYPE":0,"CLASSIFICATION_TYPE":"U","NORAD_CAT_ID":20666,"ELEMENT_SET_NO":999,"REV_AT_EPOCH":94162,"BSTAR":0.00017774,"MEAN_MOTION_DOT":2.266e-5,"MEAN_MOTION_DDOT":0},{"OBJECT_NAME":"SL-8 R/B","OBJECT_ID":"1990-078B","EPOCH":"2026-04-01T10:00:21.708288","MEAN_MOTION":14.8973147,"ECCENTRICITY":0.0357927,"INCLINATION":82.9033,"RA_OF_ASC_NODE":230.857,"ARG_OF_PERICENTER":297.3117,"MEAN_ANOMALY":59.2079,"EPHEMERIS_TYPE":0,"CLASSIFICATION_TYPE":"U","NORAD_CAT_ID":20775,"ELEMENT_SET_NO":999,"REV_AT_EPOCH":81268,"BSTAR":0.00033166,"MEAN_MOTION_DOT":0.00011197,"MEAN_MOTION_DDOT":0}]
